[{"OBJECT_NAME":"FLOCK 4G-1","OBJECT_ID":"2025-009BK","EPOCH":"2026-03-09T18:13:41.778912","MEAN_MOTION":15.27421081,"ECCENTRICITY":0.00031801,"INCLINATION":97.4059,"RA_OF_ASC_NODE":151.3158,"ARG_OF_PERICENTER":323.1401,"MEAN_ANOMALY":36.9619,"EPHEMERIS_TYPE":0,"CLASSIFICATION_TYPE":"U","NORAD_CAT_ID":62666,"ELEMENT_SET_NO":999,"REV_AT_EPOCH":6372,"BSTAR":0.00050653644,"MEAN_MOTION_DOT":0.00013534,"MEAN_MOTION_DDOT":0},{"OBJECT_NAME":"STARLINK-35812","OBJECT_ID":"2025-268T","EPOCH":"2026-03-09T03:24:28.051776","MEAN_MOTION":15.27584612,"ECCENTRICITY":0.00012752,"INCLINATION":42.9983,"RA_OF_ASC_NODE":350.3598,"ARG_OF_PERICENTER":269.6091,"MEAN_ANOMALY":90.4615,"EPHEMERIS_TYPE":0,"CLASSIFICATION_TYPE":"U","NORAD_CAT_ID":66574,"ELEMENT_SET_NO":999,"REV_AT_EPOCH":1787,"BSTAR":0.0010661444,"MEAN_MOTION_DOT":0.00029196,"MEAN_MOTION_DDOT":0}]
